OBJECT_NAME,OBJECT_ID,EPOCH,MEAN_MOTION,ECCENTRICITY,INCLINATION,RA_OF_ASC_NODE,ARG_OF_PERICENTER,MEAN_ANOMALY,EPHEMERIS_TYPE,CLASSIFICATION_TYPE,NORAD_CAT_ID,ELEMENT_SET_NO,REV_AT_EPOCH,BSTAR,MEAN_MOTION_DOT,MEAN_MOTION_DDOT
STARLINK-34225,2025-129C,2026-03-10T05:35:29.670720,14.98334247,.00034155,70.0016,73.2847,267.3530,92.7238,0,U,64414,999,4136,.21793003E-3,.2509E-4,0
STARLINK-34422,2025-129D,2026-03-10T03:29:18.790368,14.98335755,.00033814,70.0005,73.3871,269.0134,91.0638,0,U,64415,999,4129,.34908666E-3,.4075E-4,0
STARLINK-34514,2025-129E,2026-03-10T07:23:36.428928,14.98332562,.00037171,70.0016,72.7530,276.4838,83.5898,0,U,64416,999,4138,.12752927E-3,.1429E-4,0
STARLINK-34487,2025-129F,2026-03-10T07:29:37.295808,14.98335589,.00036151,70.0018,72.7653,269.4106,90.6639,0,U,64417,999,4132,.28842791E-3,.3351E-4,0
STARLINK-34461,2025-129G,2026-03-10T05:29:43.529856,14.98335832,.00029984,70.0011,73.2748,267.7537,92.3279,0,U,64418,999,4136,.16551717E-3,.1883E-4,0
STARLINK-34512,2025-129H,2026-03-10T03:35:19.451616,14.98333309,.00032311,70.0010,73.3955,270.2171,89.8618,0,U,64419,999,4129,.42484141E-3,.498E-4,0
STARLINK-34503,2025-129J,2026-03-10T05:17:42.444096,14.98341504,.00031893,70.0013,73.2449,268.8139,91.2654,0,U,64420,999,4130,.5911515E-3,.697E-4,0
STARLINK-34498,2025-129K,2026-03-10T03:23:18.170592,14.98332645,.00034672,70.0008,73.3739,269.4436,90.6326,0,U,64421,999,4135,.29978946E-3,.3486E-4,0
STARLINK-34434,2025-129L,2026-03-10T05:29:29.345568,14.98325974,.00031116,70.0010,73.2759,270.9348,89.1455,0,U,64422,999,4136,.51495437E-3,.6056E-4,0
STARLINK-34467,2025-129M,2026-03-10T06:17:31.938144,14.98343252,.0002678,70.0025,72.9937,266.3563,93.7290,0,U,64423,999,4137,.63482898E-3,.7492E-4,0
STARLINK-34468,2025-129N,2026-03-10T05:35:43.990656,14.98338092,.00032317,70.0017,73.2892,270.0965,89.9824,0,U,64424,999,4136,.53872194E-3,.6342E-4,0
STARLINK-34452,2025-129P,2026-03-10T05:59:44.520576,14.98312359,.00036276,70.0011,72.9460,270.6611,89.4133,0,U,64425,999,4137,.65748087E-3,.7757E-4,0
STARLINK-34432,2025-129Q,2026-03-10T06:23:32.779104,14.98340187,.00033505,70.0021,73.0030,265.5424,94.5353,0,U,64426,999,4131,.86631296E-3,.10262E-3,0
STARLINK-34480,2025-129R,2026-03-10T05:59:29.981184,14.98342365,.00032591,70.0015,72.9425,270.4167,89.6619,0,U,64427,999,4137,.52981211E-3,.6236E-4,0
STARLINK-34495,2025-129S,2026-03-10T06:11:31.206048,14.98339888,.00030732,70.0011,72.9794,269.2461,90.8346,0,U,64428,999,4137,.37849386E-3,.4427E-4,0
STARLINK-34501,2025-129T,2026-03-10T05:17:28.188096,14.98330993,.00033296,70.0007,73.2459,271.1035,88.9742,0,U,64429,999,4136,.21930903E-3,.2525E-4,0
STARLINK-34441,2025-129U,2026-03-10T06:29:33.337536,14.98340335,.0003348,70.0022,73.0220,261.6804,98.3975,0,U,64430,999,4137,.37973822E-3,.4442E-4,0
STARLINK-34524,2025-129V,2026-03-10T06:05:29.366304,14.98313018,.00031393,70.0020,72.9610,276.3929,83.6873,0,U,64431,999,4131,-.77459334E-3,-.9319E-4,0
STARLINK-34506,2025-129W,2026-03-10T07:17:36.141792,14.98344235,.00032981,70.0015,72.7351,255.4028,104.6766,0,U,64432,999,4132,.12561888E-3,.1407E-4,0
STARLINK-34451,2025-129X,2026-03-10T05:23:42.974016,14.98339709,.00035337,70.0014,73.2556,275.9598,84.1158,0,U,64433,999,4130,.85996789E-3,.10186E-3,0
STARLINK-34472,2025-129Y,2026-03-10T03:23:32.140608,14.98334287,.00047567,70.0006,73.3688,277.2240,82.8378,0,U,64434,999,4135,.51027809E-3,.6002E-4,0
STARLINK-34478,2025-129Z,2026-03-10T06:11:45.581280,14.98343800,.00033313,70.0016,72.9765,267.7972,92.2805,0,U,64435,999,4131,.6274812E-3,.7405E-4,0
STARLINK-34396,2025-129AA,2026-03-10T03:35:33.600480,14.98341458,.00034976,70.0003,73.3890,272.9772,87.0987,0,U,64436,999,4129,.29057021E-3,.3377E-4,0
STARLINK-34507,2025-129AB,2026-03-10T07:29:51.301248,14.98294909,.00030808,70.0007,72.7612,281.5974,78.4839,0,U,64437,999,4138,.30318677E-2,.36238E-3,0
STARLINK-34465,2025-130A,2026-03-10T06:00:02.000160,15.30191450,.00014689,53.1590,85.9050,91.8496,113.7115,0,U,64438,999,586,-.61407976E-4,-.2177E-4,0
STARLINK-34456,2025-130B,2026-03-10T06:25:12.725760,15.30213014,.00007418,53.1588,85.7086,97.3781,262.7304,0,U,64439,999,4079,.89488638E-3,.26249E-3,0
STARLINK-34410,2025-130C,2026-03-10T06:11:32.246304,15.30204412,.00011349,53.1591,85.6480,68.8704,291.2418,0,U,64440,999,4079,.98126927E-3,.2882E-3,0
STARLINK-34453,2025-130D,2026-03-10T05:29:09.112416,15.30197011,.00025357,53.1620,86.1713,118.7778,241.3478,0,U,64441,999,4078,.87944652E-3,.25776E-3,0
STARLINK-34404,2025-130E,2026-03-09T10:22:16.782816,15.30195294,.00014278,53.1602,89.7369,86.1678,273.9486,0,U,64442,999,4066,.87959595E-3,.25779E-3,0
STARLINK-34403,2025-130F,2026-03-10T06:14:34.291104,15.30220623,.00021258,53.1587,85.6498,140.6910,219.4245,0,U,64443,999,4079,.10070473E-2,.29605E-3,0
