STARLINK-34225          
1 64414U 25129C   26069.23298230  .00002509  00000+0  21793-3 0  9990
2 64414  70.0016  73.2847 0003415 267.3530  92.7238 14.98334247 41365
STARLINK-34422          
1 64415U 25129D   26069.14535637  .00004075  00000+0  34909-3 0  9999
2 64415  70.0005  73.3871 0003381 269.0134  91.0638 14.98335755 41296
STARLINK-34514          
1 64416U 25129E   26069.30806052  .00001429  00000+0  12753-3 0  9993
2 64416  70.0016  72.7530 0003717 276.4838  83.5898 14.98332562 41387
STARLINK-34487          
1 64417U 25129F   26069.31223722  .00003351  00000+0  28843-3 0  9995
2 64417  70.0018  72.7653 0003615 269.4106  90.6639 14.98335589 41321
STARLINK-34461          
1 64418U 25129G   26069.22897604  .00001883  00000+0  16552-3 0  9994
2 64418  70.0011  73.2748 0002998 267.7537  92.3279 14.98335832 41362
STARLINK-34512          
1 64419U 25129H   26069.14953069  .00004980  00000+0  42484-3 0  9998
2 64419  70.0010  73.3955 0003231 270.2171  89.8618 14.98333309 41294
STARLINK-34503          
1 64420U 25129J   26069.22063014  .00006970  00000+0  59115-3 0  9991
2 64420  70.0013  73.2449 0003189 268.8139  91.2654 14.98341504 41300
STARLINK-34498          
1 64421U 25129K   26069.14118253  .00003486  00000+0  29979-3 0  9993
2 64421  70.0008  73.3739 0003467 269.4436  90.6326 14.98332645 41354
STARLINK-34434          
1 64422U 25129L   26069.22881187  .00006056  00000+0  51495-3 0  9990
2 64422  70.0010  73.2759 0003111 270.9348  89.1455 14.98325974 41368
STARLINK-34467          
1 64423U 25129M   26069.26217521  .00007492  00000+0  63483-3 0  9995
2 64423  70.0025  72.9937 0002678 266.3563  93.7290 14.98343252 41372
STARLINK-34468          
1 64424U 25129N   26069.23314804  .00006342  00000+0  53872-3 0  9999
2 64424  70.0017  73.2892 0003231 270.0965  89.9824 14.98338092 41367
STARLINK-34452          
1 64425U 25129P   26069.24982084  .00007757  00000+0  65748-3 0  9998
2 64425  70.0011  72.9460 0003627 270.6611  89.4133 14.98312359 41379
STARLINK-34432          
1 64426U 25129Q   26069.26635161  .00010262  00000+0  86631-3 0  9991
2 64426  70.0021  73.0030 0003350 265.5424  94.5353 14.98340187 41319
STARLINK-34480          
1 64427U 25129R   26069.24965256  .00006236  00000+0  52981-3 0  9998
2 64427  70.0015  72.9425 0003259 270.4167  89.6619 14.98342365 41372
STARLINK-34495          
1 64428U 25129S   26069.25800007  .00004427  00000+0  37849-3 0  9998
2 64428  70.0011  72.9794 0003073 269.2461  90.8346 14.98339888 41372
STARLINK-34501          
1 64429U 25129T   26069.22046514  .00002525  00000+0  21931-3 0  9993
2 64429  70.0007  73.2459 0003329 271.1035  88.9742 14.98330993 41368
STARLINK-34441          
1 64430U 25129U   26069.27052474  .00004442  00000+0  37974-3 0  9996
2 64430  70.0022  73.0220 0003348 261.6804  98.3975 14.98340335 41375
STARLINK-34524          
1 64431U 25129V   26069.25381211 -.00009319  00000+0 -77459-3 0  9991
2 64431  70.0020  72.9610 0003139 276.3929  83.6873 14.98313018 41310
STARLINK-34506          
1 64432U 25129W   26069.30389053  .00001407  00000+0  12562-3 0  9992
2 64432  70.0015  72.7351 0003298 255.4028 104.6766 14.98344235 41320
STARLINK-34451          
1 64433U 25129X   26069.22480294  .00010186  00000+0  85997-3 0  9999
2 64433  70.0014  73.2556 0003533 275.9598  84.1158 14.98339709 41309
STARLINK-34472          
1 64434U 25129Y   26069.14134422  .00006002  00000+0  51028-3 0  9990
2 64434  70.0006  73.3688 0004756 277.2240  82.8378 14.98334287 41355
STARLINK-34478          
1 64435U 25129Z   26069.25816645  .00007405  00000+0  62748-3 0  9996
2 64435  70.0016  72.9765 0003331 267.7972  92.2805 14.98343800 41319
STARLINK-34396          
1 64436U 25129AA  26069.14969445  .00003377  00000+0  29057-3 0  9992
2 64436  70.0003  73.3890 0003497 272.9772  87.0987 14.98341458 41296
STARLINK-34507          
1 64437U 25129AB  26069.31239932  .00036238  00000+0  30319-2 0  9997
2 64437  70.0007  72.7612 0003080 281.5974  78.4839 14.98294909 41382
STARLINK-34465          
1 64438U 25130A   26069.25002315 -.00002177  00000+0 -61408-4 0  9998
2 64438  53.1590  85.9050 0001468  91.8496 113.7115 15.30191450  5860
STARLINK-34456          
1 64439U 25130B   26069.26750840  .00026249  00000+0  89489-3 0  9995
2 64439  53.1588  85.7086 0000741  97.3781 262.7304 15.30213014 40793
STARLINK-34410          
1 64440U 25130C   26069.25801211  .00028820  00000+0  98127-3 0  9991
2 64440  53.1591  85.6480 0001134  68.8704 291.2418 15.30204412 40796
STARLINK-34453          
1 64441U 25130D   26069.22857769  .00025776  00000+0  87945-3 0  9991
2 64441  53.1620  86.1713 0002535 118.7778 241.3478 15.30197011 40784
STARLINK-34404          
1 64442U 25130E   26068.43213869  .00025779  00000+0  87960-3 0  9991
2 64442  53.1602  89.7369 0001427  86.1678 273.9486 15.30195294 40665
STARLINK-34403          
1 64443U 25130F   26069.26011911  .00029605  00000+0  10070-2 0  9997
2 64443  53.1587  85.6498 0002125 140.6910 219.4245 15.30220623 40794
